NORAD_CAT_ID,OBJECT_NAME,OBJECT_TYPE,EPOCH,MEAN_MOTION,ECCENTRICITY,INCLINATION,RA_OF_ASC_NODE,ARG_OF_PERICENTER,MEAN_ANOMALY,BSTAR,MEAN_MOTION_DOT,MEAN_MOTION_DDOT,TLE_LINE0,TLE_LINE1,TLE_LINE2,SEMIMAJOR_AXIS,PERIOD,APOGEE,PERIGEE,DECAYED
53843.0,STARLINK-4769,PAYLOAD,2024-04-02 12:37:33,15.08834902,0.0001177,53.2165,224.3006,78.8488,281.2637,6.0081e-05,6.68e-06,0.0,0 STARLINK-4769,1 53843U 22114AB  24093.52608417  .00000668  00000-0  60081-4 0  9993,2 53843  53.2165 224.3006 0001177  78.8488 281.2637 15.08834902 85825,6917.896,95.438,540.575,538.947,0.0
53843.0,STARLINK-4769,PAYLOAD,2024-04-02 18:59:06,15.08841793,0.0001122,53.2162,223.1112,76.4794,283.6323,0.00039196,5.956e-05,0.0,0 STARLINK-4769,1 53843U 22114AB  24093.79104524  .00005956  00000-0  39196-3 0  9999,2 53843  53.2162 223.1112 0001122  76.4794 283.6323 15.08841793 86400,6917.875,95.437,540.516,538.964,0.0
53843.0,STARLINK-4769,PAYLOAD,2024-04-03 12:28:20,15.08858391,0.0001185,53.2155,219.8408,70.9238,289.1882,0.00057259,8.841e-05,0.0,0 STARLINK-4769,1 53843U 22114AB  24094.51968328  .00008841  00000-0  57259-3 0  9996,2 53843  53.2155 219.8408 0001185  70.9238 289.1882 15.08858391 86518,6917.824,95.436,540.509,538.869,0.0
53843.0,STARLINK-4769,PAYLOAD,2024-04-03 18:49:52,15.08870798,0.0001213,53.2153,218.6515,70.7513,289.361,0.00090449,0.00014148,0.0,0 STARLINK-4769,1 53843U 22114AB  24094.78463825  .00014148  00000-0  90449-3 0  9992,2 53843  53.2153 218.6515 0001213  70.7513 289.3610 15.08870798 86019,6917.786,95.436,540.49,538.812,0.0
53843.0,STARLINK-4769,PAYLOAD,2024-04-04 01:11:25,15.08859124,0.0001465,53.2156,217.4616,77.2704,282.8452,0.0005001,7.684e-05,0.0,0 STARLINK-4769,1 53843U 22114AB  24095.04959961  .00007684  00000-0  50010-3 0  9990,2 53843  53.2156 217.4616 0001465  77.2704 282.8452 15.08859124 86050,6917.822,95.436,540.7,538.673,0.0
53843.0,STARLINK-4769,PAYLOAD,2024-04-04 13:54:30,15.08847269,0.0001286,53.2152,215.0831,80.0629,280.0508,0.0001178,1.588e-05,0.0,0 STARLINK-4769,1 53843U 22114AB  24095.57951807  .00001588  00000-0  11780-3 0  9997,2 53843  53.2152 215.0831 0001286  80.0629 280.0508 15.08847269 86136,6917.858,95.437,540.613,538.834,0.0
53843.0,STARLINK-4769,PAYLOAD,2024-04-04 15:29:53,15.08848573,0.0001244,53.2152,214.7857,79.5001,280.6131,0.00021388,3.118e-05,0.0,0 STARLINK-4769,1 53843U 22114AB  24095.64575760  .00003118  00000-0  21388-3 0  9991,2 53843  53.2152 214.7857 0001244  79.5001 280.6131 15.08848573 86688,6917.854,95.437,540.58,538.859,0.0
53843.0,STARLINK-4769,PAYLOAD,2024-04-05 13:45:16,15.08857733,0.0001181,53.2147,210.6229,83.1429,276.9697,0.00053832,8.294e-05,0.0,0 STARLINK-4769,1 53843U 22114AB  24096.57311225  .00008294  00000-0  53832-3 0  9997,2 53843  53.2147 210.6229 0001181  83.1429 276.9697 15.08857733 86824,6917.826,95.436,540.508,538.874,0.0
53843.0,STARLINK-4769,PAYLOAD,2024-04-05 16:56:02,15.08863347,0.0001207,53.2152,210.0278,82.8638,277.2491,0.00069033,0.00010723,0.0,0 STARLINK-4769,1 53843U 22114AB  24096.70558989  .00010723  00000-0  69033-3 0  9992,2 53843  53.2152 210.0278 0001207  82.8638 277.2491 15.08863347 86302,6917.809,95.436,540.509,538.839,0.0
53843.0,STARLINK-4769,PAYLOAD,2024-04-06 00:52:58,15.08851221,0.0001151,53.2159,208.5413,84.0275,276.0848,0.00035304,5.337e-05,0.0,0 STARLINK-4769,1 53843U 22114AB  24097.03679121  .00005337  00000-0  35304-3 0  9990,2 53843  53.2159 208.5413 0001151  84.0275 276.0848 15.08851221 86357,6917.846,95.437,540.507,538.915,0.0
53843.0,STARLINK-4769,PAYLOAD,2024-04-06 13:36:04,15.08847651,0.0001991,53.2156,206.1628,81.4458,278.676,0.00025964,3.847e-05,0.0,0 STARLINK-4769,1 53843U 22114AB  24097.56671471  .00003847  00000-0  25964-3 0  9993,2 53843  53.2156 206.1628 0001991  81.4458 278.6760 15.08847651 86434,6917.857,95.437,541.099,538.345,0.0
53843.0,STARLINK-4769,PAYLOAD,2024-04-06 16:46:50,15.08839739,0.0001615,53.2159,205.5675,83.9631,276.1545,7.7975e-05,9.53e-06,0.0,0 STARLINK-4769,1 53843U 22114AB  24097.69919616  .00000953  00000-0  77975-4 0  9998,2 53843  53.2159 205.5675 0001615  83.9631 276.1545 15.08839739 86459,6917.881,95.438,540.863,538.629,0.0
53843.0,STARLINK-4769,PAYLOAD,2024-04-07 10:16:05,15.08833232,0.0001653,53.2158,202.2973,81.9824,278.1356,-1.7369e-05,-5.64e-06,0.0,0 STARLINK-4769,1 53843U 22114AB  24098.42784261 -.00000564  00000-0 -17369-4 0  9997,2 53843  53.2158 202.2973 0001653  81.9824 278.1356 15.08833232 86563,6917.901,95.438,540.91,538.623,0.0
53843.0,STARLINK-4769,PAYLOAD,2024-04-07 13:26:51,15.08836646,0.0001645,53.2164,201.7,94.2562,265.8618,5.7123e-05,6.21e-06,0.0,0 STARLINK-4769,1 53843U 22114AB  24098.56032127  .00000621  00000-0  57123-4 0  9993,2 53843  53.2164 201.7000 0001645  94.2562 265.8618 15.08836646 87121,6917.891,95.438,540.894,538.618,0.0
53843.0,STARLINK-4769,PAYLOAD,2024-04-08 13:17:38,15.08845702,0.0001576,53.2164,197.2415,92.6706,267.4466,0.00028545,4.259e-05,0.0,0 STARLINK-4769,1 53843U 22114AB  24099.55392124  .00004259  00000-0  28545-3 0  9995,2 53843  53.2164 197.2415 0001576  92.6706 267.4466 15.08845702 86733,6917.863,95.437,540.818,538.638,0.0
53843.0,STARLINK-4769,PAYLOAD,2024-04-09 13:08:25,15.0885025,0.0001403,53.2173,192.7835,92.5687,267.5466,0.00027044,4.02e-05,0.0,0 STARLINK-4769,1 53843U 22114AB  24100.54751849  .00004020  00000-0  27044-3 0  9999,2 53843  53.2173 192.7835 0001403  92.5687 267.5466 15.08850250 87427,6917.849,95.437,540.685,538.743,0.0
53843.0,STARLINK-4769,PAYLOAD,2024-04-09 22:40:44,15.08848751,0.0001207,53.2148,190.9973,80.8615,279.2513,0.00016012,2.262e-05,0.0,0 STARLINK-4769,1 53843U 22114AB  24100.94495665  .00002262  00000-0  16012-3 0  9993,2 53843  53.2148 190.9973 0001207  80.8615 279.2513 15.08848751 87487,6917.854,95.437,540.554,538.884,0.0
53843.0,STARLINK-4769,PAYLOAD,2024-04-10 05:02:16,15.08847313,0.0001335,53.2156,189.8095,89.2178,270.8967,9.9367e-05,1.294e-05,0.0,0 STARLINK-4769,1 53843U 22114AB  24101.20991604  .00001294  00000-0  99367-4 0  9996,2 53843  53.2156 189.8095 0001335  89.2178 270.8967 15.08847313 86984,6917.858,95.437,540.647,538.8,0.0
53843.0,STARLINK-4769,PAYLOAD,2024-04-10 12:59:12,15.08845899,0.0001403,53.2181,188.3231,93.1506,266.9646,3.3595e-05,2.47e-06,0.0,0 STARLINK-4769,1 53843U 22114AB  24101.54111569  .00000247  00000-0  33595-4 0  9995,2 53843  53.2181 188.3231 0001403  93.1506 266.9646 15.08845899 87576,6917.862,95.437,540.698,538.757,0.0
53843.0,STARLINK-4769,PAYLOAD,2024-04-11 04:53:04,15.08839399,0.0001745,53.2179,185.3474,87.5808,272.5384,-7.6627e-05,-1.507e-05,0.0,0 STARLINK-4769,1 53843U 22114AB  24102.20351879 -.00001507  00000-0 -76627-4 0  9994,2 53843  53.2179 185.3474 0001745  87.5808 272.5384 15.08839399 87132,6917.882,95.438,540.954,538.54,0.0
53843.0,STARLINK-4769,PAYLOAD,2024-04-11 12:49:59,15.08836012,0.0001534,53.2168,183.8602,76.6593,283.457,-8.4474e-05,-1.632e-05,0.0,0 STARLINK-4769,1 53843U 22114AB  24102.53472168 -.00001632  00000-0 -84474-4 0  9993,2 53843  53.2168 183.8602 0001534  76.6593 283.4570 15.08836012 87724,6917.893,95.438,540.819,538.696,0.0
53843.0,STARLINK-4769,PAYLOAD,2024-04-12 12:40:47,15.08841433,0.0001478,53.2165,179.4001,75.3351,284.7805,0.00010483,1.381e-05,0.0,0 STARLINK-4769,1 53843U 22114AB  24103.52832344  .00001381  00000-0  10483-3 0  9996,2 53843  53.2165 179.4001 0001478  75.3351 284.7805 15.08841433 87335,6917.876,95.437,540.763,538.719,0.0
53843.0,STARLINK-4769,PAYLOAD,2024-04-13 10:56:11,15.08840542,0.0001785,53.2164,175.2379,62.0121,298.1051,0.00020813,3.026e-05,0.0,0 STARLINK-4769,1 53843U 22114AB  24104.45568891  .00003026  00000-0  20813-3 0  9998,2 53843  53.2164 175.2379 0001785  62.0121 298.1051 15.08840542 87472,6917.879,95.438,540.979,538.509,0.0
53843.0,STARLINK-4769,PAYLOAD,2024-04-14 10:46:58,15.08848047,0.0001865,53.2167,170.7782,63.5108,296.6075,0.00020881,3.037e-05,0.0,0 STARLINK-4769,1 53843U 22114AB  24105.44928588  .00003037  00000-0  20881-3 0  9998,2 53843  53.2167 170.7782 0001865  63.5108 296.6075 15.08848047 88167,6917.856,95.437,541.011,538.431,0.0
53843.0,STARLINK-4769,PAYLOAD,2024-04-15 04:16:12,15.08846851,0.0001918,53.2174,167.5083,67.9418,292.1778,0.0001661,2.357e-05,0.0,0 STARLINK-4769,1 53843U 22114AB  24106.17792554  .00002357  00000-0  16610-3 0  9990,2 53843  53.2174 167.5083 0001918  67.9418 292.1778 15.08846851 87738,6917.859,95.437,541.051,538.398,0.0
53843.0,STARLINK-4769,PAYLOAD,2024-04-15 10:37:45,15.0884672,0.0001803,53.2173,166.317,84.2451,275.8747,0.00013517,1.864e-05,0.0,0 STARLINK-4769,1 53843U 22114AB  24106.44288329  .00001864  00000-0  13517-3 0  9995,2 53843  53.2173 166.3170 0001803  84.2451 275.8747 15.08846720 88317,6917.86,95.437,540.972,538.478,0.0
53843.0,STARLINK-4769,PAYLOAD,2024-04-16 04:07:00,15.08818319,0.0001914,53.2166,163.0449,94.9733,265.1477,0.00059599,9.204e-05,0.0,0 STARLINK-4769,1 53843U 22114AB  24107.17153357  .00009204  00000-0  59599-3 0  9994,2 53843  53.2166 163.0449 0001914  94.9733 265.1477 15.08818319 87882,6917.947,95.439,541.136,538.488,0.0
53843.0,STARLINK-4769,PAYLOAD,2024-04-16 10:28:31,15.08848004,0.0001634,53.216,161.8534,84.3124,275.8054,7.546e-05,9.13e-06,0.0,0 STARLINK-4769,1 53843U 22114AB  24107.43648063  .00000913  00000-0  75460-4 0  9990,2 53843  53.2160 161.8534 0001634  84.3124 275.8054 15.08848004 87921,6917.856,95.437,540.851,538.591,0.0
53843.0,STARLINK-4769,PAYLOAD,2024-04-17 08:43:55,15.08848356,0.0001704,53.2157,157.6909,89.6011,270.5176,0.00013642,1.884e-05,0.0,0 STARLINK-4769,1 53843U 22114AB  24108.36383968  .00001884  00000-0  13642-3 0  9994,2 53843  53.2157 157.6909 0001704  89.6011 270.5176 15.08848356 88600,6917.855,95.437,540.899,538.541,0.0
53843.0,STARLINK-4769,PAYLOAD,2024-04-18 10:10:08,15.08791014,0.000122,53.216,152.9358,91.453,268.6602,-0.00062743,-0.00010246,0.0,0 STARLINK-4769,1 53843U 22114AB  24109.42371236 -.00010246  00000-0 -62743-3 0  9997,2 53843  53.2160 152.9358 0001220  91.4530 268.6602 15.08791014 88228,6918.03,95.441,540.739,539.051,0.0
